[{"OBJECT_NAME":"STARLINK-30067","OBJECT_ID":"2023-067F","EPOCH":"2026-03-09T22:18:02.822976","MEAN_MOTION":15.02534016,"ECCENTRICITY":0.0001088,"INCLINATION":43.0035,"RA_OF_ASC_NODE":273.3696,"ARG_OF_PERICENTER":270.2297,"MEAN_ANOMALY":89.842,"EPHEMERIS_TYPE":0,"CLASSIFICATION_TYPE":"U","NORAD_CAT_ID":56693,"ELEMENT_SET_NO":999,"REV_AT_EPOCH":15569,"BSTAR":0.00025963215,"MEAN_MOTION_DOT":3.305e-5,"MEAN_MOTION_DDOT":0},{"OBJECT_NAME":"OBJECT D","OBJECT_ID":"2018-099D","EPOCH":"2026-03-09T21:55:11.400096","MEAN_MOTION":15.0608919,"ECCENTRICITY":0.00104801,"INCLINATION":97.4323,"RA_OF_ASC_NODE":113.3477,"ARG_OF_PERICENTER":333.2621,"MEAN_ANOMALY":26.8065,"EPHEMERIS_TYPE":0,"CLASSIFICATION_TYPE":"U","NORAD_CAT_ID":43761,"ELEMENT_SET_NO":999,"REV_AT_EPOCH":39716,"BSTAR":0.0002280609,"MEAN_MOTION_DOT":3.276e-5,"MEAN_MOTION_DDOT":0}]
